{"type":"FeatureCollection","features":[{"type":"Feature","properties":{"code":"0220100","regionName":"青森県青森市","name":"青森市","nameKana":"あおもりし"},"geometry":{"type":"MultiPolygon","coordinates":[[[[140.77058,40.83485],[140.77074,40.83478],[140.76694,40.83499],[140.77052,40.83486],[140.77058,40.83485]]],[[[140.77125,40.83501],[140.77125,40.83498],[140.76992,40.83505],[140.76992,40.83507],[140.77047,40.83504],[140.77072,40.83503],[140.77125,40.83501]]],[[[140.76698,40.8352],[140.76632,40.83577],[140.76695,40.83521],[140.76698,40.8352]]],[[[140.72754,40.83693],[140.7275,40.83691],[140.7273,40.83715],[140.72734,40.83717],[140.72735,40.83717],[140.72755,40.83694],[140.72754,40.83693]]],[[[140.75745,40.83744],[140.75108,40.8355],[140.75048,40.83573],[140.75741,40.8375],[140.75918,40.8387],[140.75762,40.83757],[140.75745,40.83744]]],[[[140.72156,40.84888],[140.72048,40.84886],[140.72047,40.84892],[140.72156,40.84895],[140.72156,40.84888]]],[[[140.72645,40.84572],[140.73124,40.8416],[140.73591,40.8411],[140.72662,40.84798],[140.72659,40.84784],[140.72645,40.84572]]],[[[140.69967,40.85436],[140.69942,40.85412],[140.6994,40.85413],[140.69965,40.85438],[140.69967,40.85436]]],[[[140.85053,40.89692],[140.85132,40.89662],[140.8522,40.89487],[140.85183,40.89522],[140.85006,40.89395],[140.84768,40.89487],[140.84704,40.89587],[140.84724,40.89687],[140.84833,40.89757],[140.85039,40.89709],[140.85053,40.89692]]],[[[140.85424,40.9033],[140.85347,40.90362],[140.85428,40.90336],[140.85424,40.9033]]],[[[140.56334,40.97015],[140.56445,40.96941],[140.57072,40.96809],[140.57622,40.96454],[140.58114,40.96274],[140.58266,40.96423],[140.58747,40.96548],[140.59337,40.96436],[140.5949,40.96331],[140.59817,40.96233],[140.60074,40.96244],[140.60131,40.96131],[140.60352,40.9611],[140.60525,40.95987],[140.60472,40.95789],[140.60533,40.95593],[140.6063,40.95553],[140.60634,40.95367],[140.60851,40.95188],[140.60887,40.95043],[140.61031,40.95005],[140.61188,40.95094],[140.61293,40.94863],[140.61426,40.94807],[140.61491,40.94823],[140.61591,40.95171],[140.61867,40.95225],[140.62104,40.95114],[140.62741,40.95069],[140.62994,40.94959],[140.63361,40.95071],[140.63598,40.95033],[140.63621,40.94965],[140.63704,40.95002],[140.64036,40.94906],[140.64305,40.95034],[140.64998,40.94931],[140.65191,40.95026],[140.65711,40.9491],[140.65754,40.94928],[140.65728,40.94965],[140.65838,40.94972],[140.65885,40.94881],[140.65958,40.94915],[140.6597,40.94842],[140.66079,40.94845],[140.66147,40.94405],[140.66398,40.93611],[140.66457,40.93514],[140.66643,40.93552],[140.66707,40.93415],[140.66885,40.93305],[140.66722,40.93375],[140.66653,40.93516],[140.66487,40.93482],[140.6653,40.93372],[140.66626,40.93382],[140.66526,40.93358],[140.66542,40.93318],[140.66704,40.9335],[140.66628,40.93325],[140.6668,40.93197],[140.66748,40.93213],[140.66784,40.933],[140.66754,40.9321],[140.66588,40.93159],[140.66891,40.92536],[140.67205,40.9123],[140.67445,40.9062],[140.67597,40.89505],[140.67716,40.89297],[140.67825,40.89315],[140.67994,40.89148],[140.67827,40.89302],[140.67689,40.8928],[140.67746,40.89124],[140.67917,40.89153],[140.67699,40.89101],[140.67708,40.88929],[140.6779,40.88772],[140.67749,40.88761],[140.68304,40.87473],[140.6834,40.87435],[140.68556,40.87502],[140.6873,40.87377],[140.68553,40.87495],[140.68448,40.87464],[140.68529,40.87314],[140.68648,40.87366],[140.68436,40.87262],[140.68686,40.86758],[140.69191,40.86041],[140.69308,40.85973],[140.6937,40.8601],[140.69333,40.85952],[140.69497,40.85835],[140.69597,40.85812],[140.69644,40.85842],[140.696,40.85893],[140.69689,40.85804],[140.69647,40.8584],[140.69523,40.8575],[140.69715,40.85597],[140.69797,40.85689],[140.69729,40.85553],[140.69892,40.85625],[140.70147,40.85455],[140.69963,40.8557],[140.69836,40.85489],[140.70078,40.85228],[140.70274,40.85111],[140.70374,40.85167],[140.70209,40.85484],[140.7038,40.85167],[140.70312,40.85093],[140.7043,40.85101],[140.70389,40.85006],[140.70525,40.85154],[140.70679,40.85172],[140.70527,40.85151],[140.70395,40.85006],[140.7065,40.8487],[140.70806,40.8504],[140.70756,40.85102],[140.71423,40.8472],[140.71325,40.84631],[140.71445,40.84581],[140.7192,40.84842],[140.72049,40.84847],[140.7173,40.84736],[140.71785,40.84675],[140.71609,40.84554],[140.71864,40.84298],[140.72044,40.84335],[140.72746,40.83751],[140.72687,40.83777],[140.72584,40.83709],[140.7267,40.83699],[140.72628,40.83671],[140.72669,40.83628],[140.72759,40.83687],[140.73443,40.83322],[140.73206,40.83269],[140.73294,40.83021],[140.73336,40.83179],[140.73417,40.83193],[140.73391,40.83245],[140.73505,40.83278],[140.73472,40.83307],[140.73739,40.83312],[140.73807,40.83301],[140.73567,40.8312],[140.73636,40.83093],[140.73498,40.82982],[140.7382,40.82998],[140.74079,40.83099],[140.74406,40.8306],[140.74372,40.82991],[140.74541,40.82997],[140.74542,40.83076],[140.74386,40.83133],[140.74545,40.83085],[140.74572,40.83451],[140.74295,40.83714],[140.74544,40.83504],[140.74694,40.83515],[140.74792,40.8344],[140.74865,40.83205],[140.74718,40.83178],[140.74677,40.83015],[140.74915,40.83046],[140.74927,40.82968],[140.75281,40.83012],[140.75357,40.83162],[140.75525,40.83187],[140.75524,40.83025],[140.75665,40.83041],[140.76006,40.83551],[140.75957,40.83467],[140.7605,40.83419],[140.76143,40.8353],[140.75978,40.83661],[140.76211,40.83486],[140.7635,40.83484],[140.76367,40.83514],[140.76446,40.83463],[140.76442,40.83361],[140.7706,40.83352],[140.77454,40.83289],[140.775,40.83337],[140.77546,40.83302],[140.77521,40.83156],[140.77612,40.83168],[140.77624,40.83219],[140.77625,40.83166],[140.77688,40.83152],[140.78108,40.83206],[140.78207,40.83322],[140.78152,40.83193],[140.78238,40.83199],[140.78337,40.83251],[140.78306,40.83347],[140.78396,40.83419],[140.78313,40.83345],[140.7836,40.83263],[140.78538,40.83313],[140.78504,40.83393],[140.7841,40.83377],[140.78575,40.83417],[140.78624,40.83302],[140.78907,40.83381],[140.78883,40.83483],[140.79314,40.83635],[140.79355,40.83569],[140.79501,40.83593],[140.80446,40.84081],[140.80498,40.84147],[140.80412,40.84245],[140.80712,40.8455],[140.80487,40.84303],[140.80615,40.84221],[140.80799,40.84333],[140.80705,40.84415],[140.80807,40.8437],[140.80973,40.8447],[140.81338,40.84902],[140.81547,40.85026],[140.81509,40.85125],[140.81847,40.85478],[140.81571,40.85161],[140.81672,40.85077],[140.82055,40.85407],[140.81955,40.8549],[140.82065,40.85452],[140.82187,40.85629],[140.82121,40.85688],[140.82264,40.86117],[140.82403,40.86187],[140.82554,40.86085],[140.82668,40.86111],[140.82801,40.86186],[140.82767,40.86252],[140.83028,40.86532],[140.83156,40.86545],[140.83135,40.86575],[140.83259,40.86653],[140.83296,40.86554],[140.83472,40.86616],[140.83388,40.86891],[140.83489,40.87212],[140.83682,40.87268],[140.8385,40.87241],[140.83884,40.87302],[140.84096,40.87343],[140.84286,40.87463],[140.84084,40.87296],[140.84122,40.87249],[140.84181,40.87211],[140.84441,40.87288],[140.84297,40.87412],[140.84458,40.87276],[140.84517,40.87296],[140.84952,40.87734],[140.85019,40.88383],[140.8507,40.88366],[140.85279,40.88511],[140.8569,40.88606],[140.85994,40.88839],[140.8604,40.88908],[140.85891,40.89035],[140.85912,40.89245],[140.85803,40.89341],[140.85919,40.8925],[140.85933,40.89174],[140.86023,40.89187],[140.86033,40.89255],[140.85943,40.8926],[140.86054,40.89256],[140.86042,40.89352],[140.85865,40.89347],[140.85908,40.89379],[140.85856,40.89438],[140.85915,40.89413],[140.85956,40.895],[140.85902,40.8959],[140.85835,40.89582],[140.85986,40.89663],[140.85897,40.89762],[140.859,40.89887],[140.85822,40.89923],[140.85853,40.89957],[140.85806,40.90073],[140.85709,40.90045],[140.85801,40.90079],[140.85653,40.9018],[140.85584,40.90171],[140.85642,40.90213],[140.85513,40.90266],[140.85492,40.90335],[140.85584,40.90388],[140.85807,40.90349],[140.85892,40.90395],[140.86134,40.90271],[140.8636,40.90285],[140.86517,40.90227],[140.86767,40.90303],[140.87247,40.90084],[140.87636,40.90078],[140.87783,40.90196],[140.88143,40.90234],[140.88142,40.89988],[140.88243,40.89913],[140.883,40.89707],[140.88548,40.89601],[140.88726,40.89647],[140.89123,40.89615],[140.88985,40.89576],[140.88845,40.89407],[140.88794,40.89012],[140.88815,40.88949],[140.88958,40.88928],[140.89382,40.88708],[140.8921,40.88469],[140.89237,40.8835],[140.89357,40.88298],[140.89666,40.87925],[140.89872,40.87875],[140.89978,40.8776],[140.90295,40.87629],[140.90403,40.87365],[140.91061,40.87131],[140.91147,40.87005],[140.91151,40.86833],[140.9129,40.86706],[140.91323,40.86462],[140.91647,40.86342],[140.91907,40.8632],[140.91981,40.86212],[140.9227,40.86076],[140.92405,40.8585],[140.92514,40.85785],[140.92915,40.85638],[140.93129,40.8562],[140.93228,40.85443],[140.93253,40.85232],[140.93352,40.85115],[140.93206,40.84963],[140.93002,40.8454],[140.93214,40.8429],[140.93574,40.8422],[140.93829,40.84251],[140.94062,40.84075],[140.94196,40.83874],[140.94595,40.83836],[140.94777,40.83722],[140.95011,40.837],[140.95366,40.83353],[140.95419,40.83224],[140.95614,40.83041],[140.95752,40.82998],[140.95582,40.82788],[140.95636,40.82581],[140.95459,40.82115],[140.95479,40.818],[140.95748,40.81785],[140.96023,40.8152],[140.96668,40.81417],[140.96827,40.81451],[140.97731,40.80725],[140.98061,40.80618],[140.981,40.80514],[140.98043,40.80414],[140.98099,40.80248],[140.97675,40.80079],[140.97697,40.79878],[140.97639,40.79682],[140.97676,40.79428],[140.97532,40.7913],[140.97343,40.7897],[140.97215,40.78935],[140.97008,40.78651],[140.96547,40.78492],[140.96061,40.78123],[140.95795,40.77991],[140.95895,40.77931],[140.9586,40.77826],[140.96021,40.77691],[140.96016,40.77536],[140.96104,40.77441],[140.96136,40.77302],[140.95619,40.76884],[140.9547,40.76641],[140.95293,40.76538],[140.94907,40.76451],[140.94826,40.76361],[140.94492,40.76338],[140.9426,40.76239],[140.94023,40.7608],[140.93954,40.7595],[140.93354,40.75982],[140.93012,40.76117],[140.92673,40.76168],[140.92058,40.76176],[140.91807,40.76085],[140.9175,40.75779],[140.91642,40.75675],[140.91053,40.75706],[140.90571,40.75105],[140.90606,40.7459],[140.90289,40.74455],[140.90191,40.74347],[140.90135,40.7381],[140.90915,40.72938],[140.91525,40.72981],[140.91981,40.72628],[140.92334,40.7272],[140.92552,40.72714],[140.92766,40.72523],[140.92931,40.72151],[140.93116,40.72149],[140.93194,40.72057],[140.93292,40.7205],[140.93729,40.72085],[140.93874,40.72149],[140.94137,40.72135],[140.9468,40.71959],[140.95317,40.7187],[140.95953,40.71343],[140.96288,40.71331],[140.96362,40.70965],[140.96472,40.70788],[140.96643,40.70676],[140.97002,40.70583],[140.97612,40.69848],[140.97897,40.69762],[140.97631,40.69596],[140.97386,40.69326],[140.97259,40.69293],[140.97105,40.69332],[140.97023,40.69236],[140.96983,40.69142],[140.9701,40.68815],[140.96835,40.68497],[140.96757,40.682],[140.96902,40.67887],[140.96865,40.67732],[140.96724,40.6756],[140.9682,40.67437],[140.96815,40.67363],[140.96546,40.66988],[140.9628,40.6697],[140.95974,40.66525],[140.95932,40.66258],[140.96112,40.65886],[140.95996,40.65769],[140.95621,40.65598],[140.95652,40.65228],[140.95468,40.64921],[140.955,40.64699],[140.94834,40.64543],[140.94569,40.64537],[140.93894,40.6429],[140.93573,40.64281],[140.93347,40.64327],[140.93051,40.64505],[140.92474,40.64506],[140.91973,40.64575],[140.91526,40.64877],[140.91307,40.65156],[140.91083,40.65293],[140.90704,40.65318],[140.90483,40.65424],[140.89837,40.65437],[140.89052,40.65387],[140.88733,40.65309],[140.88012,40.65707],[140.8776,40.6574],[140.87704,40.65631],[140.87723,40.65504],[140.87935,40.65324],[140.87707,40.64882],[140.87632,40.64572],[140.87977,40.64381],[140.88379,40.64067],[140.88388,40.64001],[140.88369,40.63556],[140.88283,40.63348],[140.87959,40.63006],[140.87889,40.628],[140.87664,40.62543],[140.87691,40.62478],[140.87615,40.62251],[140.87669,40.61389],[140.87148,40.613],[140.86941,40.61089],[140.86667,40.60982],[140.86292,40.60964],[140.85901,40.61021],[140.85429,40.6097],[140.84975,40.60843],[140.84427,40.60592],[140.84508,40.60778],[140.84462,40.60887],[140.84357,40.60953],[140.84431,40.61051],[140.84324,40.61133],[140.8439,40.61208],[140.83799,40.61379],[140.83607,40.61645],[140.83387,40.61762],[140.83301,40.61902],[140.83129,40.62011],[140.82781,40.62044],[140.82786,40.62378],[140.82519,40.62494],[140.82024,40.6315],[140.81317,40.63859],[140.81158,40.641],[140.80838,40.64287],[140.80566,40.6454],[140.80352,40.64633],[140.80034,40.64677],[140.7974,40.64813],[140.79348,40.64751],[140.79121,40.64847],[140.7862,40.64926],[140.78392,40.65087],[140.78352,40.65197],[140.7804,40.65507],[140.77565,40.65577],[140.77473,40.65749],[140.7729,40.6591],[140.77246,40.66042],[140.77129,40.6611],[140.76923,40.6639],[140.7664,40.66594],[140.76353,40.66576],[140.76215,40.66416],[140.76197,40.66217],[140.76095,40.66093],[140.75004,40.66314],[140.74367,40.66152],[140.7385,40.6613],[140.73569,40.66229],[140.73204,40.66266],[140.73203,40.66362],[140.72998,40.66512],[140.72969,40.66628],[140.72849,40.66638],[140.72675,40.66578],[140.72325,40.66584],[140.72172,40.66421],[140.72008,40.66444],[140.71888,40.66344],[140.71692,40.66365],[140.71567,40.6619],[140.71208,40.66206],[140.71025,40.66123],[140.70839,40.662],[140.70554,40.66176],[140.70291,40.65744],[140.70181,40.65684],[140.69812,40.65944],[140.69546,40.66052],[140.69252,40.65961],[140.69092,40.65818],[140.68847,40.6591],[140.68431,40.65926],[140.67981,40.65824],[140.67699,40.65837],[140.67034,40.65653],[140.6682,40.65667],[140.66387,40.65852],[140.66102,40.66093],[140.6586,40.66217],[140.6569,40.66586],[140.6535,40.6685],[140.65328,40.66935],[140.64859,40.67189],[140.64444,40.67538],[140.64084,40.67707],[140.63869,40.67933],[140.63605,40.68367],[140.63645,40.68773],[140.6344,40.68985],[140.63375,40.69002],[140.63193,40.68888],[140.63032,40.68924],[140.62348,40.68757],[140.61895,40.68811],[140.61818,40.68725],[140.61538,40.68743],[140.61544,40.68828],[140.61296,40.68838],[140.61303,40.68944],[140.60668,40.68971],[140.60674,40.69055],[140.60283,40.69074],[140.6029,40.69189],[140.59852,40.6921],[140.5966,40.6914],[140.59256,40.69149],[140.59243,40.6908],[140.58582,40.68958],[140.58194,40.68939],[140.58092,40.68807],[140.57874,40.68731],[140.57163,40.68945],[140.56821,40.68783],[140.56447,40.68865],[140.55918,40.68806],[140.55461,40.68421],[140.55552,40.68406],[140.55537,40.68065],[140.55622,40.67861],[140.55527,40.67678],[140.55424,40.677],[140.55364,40.67611],[140.55156,40.67072],[140.55033,40.66971],[140.54905,40.67144],[140.54925,40.67491],[140.54799,40.67477],[140.54733,40.67559],[140.54699,40.67532],[140.54599,40.67598],[140.54727,40.67682],[140.5455,40.67634],[140.54427,40.67712],[140.54466,40.67776],[140.54401,40.67824],[140.54465,40.67948],[140.54331,40.67998],[140.54381,40.68063],[140.54145,40.68315],[140.54211,40.68355],[140.54187,40.68422],[140.54326,40.6846],[140.54217,40.68574],[140.54164,40.68542],[140.54051,40.68661],[140.541,40.68682],[140.54008,40.68726],[140.54153,40.68759],[140.54535,40.68673],[140.54581,40.68797],[140.54497,40.68796],[140.5458,40.691],[140.54505,40.69118],[140.54606,40.69411],[140.54633,40.69476],[140.54875,40.69548],[140.54706,40.70028],[140.54444,40.70098],[140.54254,40.70299],[140.53692,40.70599],[140.53618,40.70693],[140.5366,40.7075],[140.53458,40.70875],[140.53293,40.71148],[140.5312,40.71221],[140.52916,40.71424],[140.52778,40.71582],[140.52853,40.7163],[140.52624,40.71794],[140.52514,40.7199],[140.5224,40.7209],[140.52113,40.72196],[140.52238,40.72646],[140.52163,40.7269],[140.52146,40.72843],[140.52024,40.72969],[140.52147,40.73048],[140.52351,40.72932],[140.52628,40.7306],[140.52757,40.73061],[140.52393,40.73693],[140.52769,40.73817],[140.53041,40.7366],[140.53658,40.73801],[140.53892,40.73951],[140.54236,40.74466],[140.54402,40.74624],[140.54461,40.74644],[140.54431,40.74341],[140.54592,40.74295],[140.54724,40.74376],[140.54742,40.74498],[140.54901,40.74573],[140.54937,40.74637],[140.54881,40.74681],[140.5537,40.74741],[140.55593,40.74861],[140.55637,40.75171],[140.55715,40.75209],[140.55756,40.75378],[140.55649,40.75532],[140.55809,40.75743],[140.56231,40.75919],[140.56387,40.76071],[140.56623,40.76055],[140.5695,40.75941],[140.57182,40.75987],[140.57368,40.76069],[140.57758,40.76507],[140.57798,40.76739],[140.57727,40.76931],[140.57636,40.77014],[140.57659,40.77212],[140.57511,40.77475],[140.57268,40.77604],[140.57303,40.77821],[140.57204,40.77964],[140.57661,40.78722],[140.57638,40.78816],[140.57519,40.78877],[140.57504,40.78982],[140.57315,40.79122],[140.57287,40.79362],[140.57465,40.7966],[140.57756,40.79763],[140.57707,40.79914],[140.57539,40.79981],[140.57448,40.80139],[140.57504,40.80421],[140.57435,40.80577],[140.57563,40.80745],[140.57349,40.80967],[140.57472,40.81187],[140.57614,40.81269],[140.57747,40.81477],[140.57722,40.81614],[140.57786,40.81739],[140.57702,40.81985],[140.57778,40.82112],[140.5772,40.82297],[140.57775,40.82598],[140.5772,40.82897],[140.58199,40.83289],[140.58044,40.83458],[140.58158,40.83568],[140.58082,40.83679],[140.58099,40.83825],[140.57968,40.8407],[140.58306,40.84294],[140.5851,40.84355],[140.58723,40.84884],[140.58887,40.84923],[140.58892,40.85144],[140.59003,40.85319],[140.58992,40.85535],[140.58838,40.85788],[140.59077,40.8601],[140.59153,40.86182],[140.59148,40.86302],[140.59076,40.86374],[140.59175,40.86484],[140.59115,40.86679],[140.59226,40.86802],[140.5921,40.8686],[140.58989,40.8697],[140.59164,40.87088],[140.59106,40.87168],[140.59154,40.87334],[140.59058,40.87469],[140.59096,40.87572],[140.58896,40.87671],[140.58889,40.87848],[140.58734,40.87924],[140.58977,40.88142],[140.58989,40.8833],[140.58598,40.88627],[140.58642,40.8881],[140.58518,40.88966],[140.58484,40.89139],[140.58358,40.89237],[140.58423,40.89433],[140.58013,40.89397],[140.57804,40.8956],[140.57756,40.89675],[140.57526,40.89705],[140.57376,40.90101],[140.57512,40.90446],[140.57961,40.90729],[140.58033,40.9103],[140.5788,40.91189],[140.58182,40.91368],[140.58347,40.91384],[140.58245,40.91809],[140.5839,40.92074],[140.58605,40.92261],[140.58527,40.92464],[140.58276,40.92597],[140.58286,40.92765],[140.58428,40.92819],[140.58684,40.93065],[140.58649,40.93166],[140.58766,40.9327],[140.58782,40.93395],[140.58668,40.93545],[140.58261,40.93588],[140.58223,40.93693],[140.58266,40.93823],[140.57993,40.94032],[140.57579,40.93955],[140.5735,40.94147],[140.5669,40.94433],[140.56522,40.94718],[140.56655,40.94841],[140.56326,40.95101],[140.56219,40.95324],[140.55838,40.95423],[140.55506,40.95589],[140.55673,40.95981],[140.5528,40.96119],[140.5536,40.96926],[140.56325,40.97019],[140.56334,40.97015]]]]}},{"type":"Feature","properties":{"code":"1522200","regionName":"新潟県上越市","name":"上越市","nameKana":"じょうえつし"},"geometry":{"type":"MultiPolygon","coordinates":[[[[138.15015,37.16161],[138.15114,37.16137],[138.15213,37.16142],[138.15213,37.16138],[138.15114,37.16132],[138.15013,37.16156],[138.15015,37.16161]]],[[[138.16828,37.16221],[138.16775,37.16213],[138.16772,37.16224],[138.16822,37.16231],[138.16887,37.16243],[138.1689,37.16233],[138.16828,37.16221]]],[[[138.17076,37.16344],[138.16972,37.16314],[138.16967,37.16324],[138.17071,37.16354],[138.17076,37.16344]]],[[[138.13575,37.16381],[138.13509,37.16388],[138.13575,37.16385],[138.13575,37.16381]]],[[[138.13468,37.16389],[138.13399,37.16404],[138.13469,37.16389],[138.13468,37.16389]]],[[[138.13585,37.16412],[138.13581,37.1641],[138.13572,37.1641],[138.13568,37.16414],[138.13568,37.16419],[138.13575,37.16421],[138.13585,37.16421],[138.13585,37.16412]]],[[[138.13642,37.16418],[138.13631,37.16415],[138.13628,37.16415],[138.13625,37.16419],[138.13628,37.16423],[138.13633,37.16426],[138.13643,37.16424],[138.13642,37.16418]]],[[[138.13788,37.16426],[138.13712,37.16416],[138.13789,37.16428],[138.13788,37.16426]]],[[[138.13746,37.16443],[138.13738,37.16442],[138.13733,37.16443],[138.13742,37.16452],[138.13749,37.1645],[138.13749,37.16445],[138.13746,37.16443]]],[[[138.13734,37.16465],[138.13727,37.16463],[138.13722,37.16465],[138.13718,37.1647],[138.13723,37.16474],[138.13734,37.16473],[138.13734,37.16465]]],[[[138.08766,37.16652],[138.08833,37.16649],[138.08844,37.16667],[138.0885,37.16753],[138.08766,37.16652]]],[[[138.1368,37.16505],[138.13672,37.16503],[138.13663,37.16509],[138.13669,37.16515],[138.13674,37.16516],[138.13678,37.16516],[138.13684,37.16508],[138.1368,37.16505]]],[[[138.18678,37.16771],[138.18669,37.16771],[138.18667,37.16774],[138.18674,37.16778],[138.18679,37.16777],[138.18678,37.16771]]],[[[138.18683,37.16788],[138.18676,37.16785],[138.18667,37.16785],[138.18662,37.16789],[138.18678,37.16799],[138.18686,37.16797],[138.18687,37.16792],[138.18683,37.16788]]],[[[138.19839,37.17036],[138.19829,37.17031],[138.19826,37.1704],[138.19831,37.17046],[138.19839,37.17044],[138.19839,37.17036]]],[[[138.19845,37.1707],[138.19839,37.17063],[138.19835,37.17064],[138.1983,37.17071],[138.19832,37.17076],[138.19839,37.17078],[138.19845,37.1707]]],[[[138.19834,37.17087],[138.19829,37.17083],[138.19825,37.17085],[138.19825,37.17091],[138.19823,37.171],[138.19829,37.17099],[138.19833,37.17093],[138.19834,37.17087]]],[[[138.19936,37.17115],[138.19931,37.17115],[138.19931,37.1712],[138.19935,37.17122],[138.19937,37.17118],[138.19936,37.17115]]],[[[138.19677,37.1715],[138.19673,37.1715],[138.19669,37.17156],[138.19669,37.17162],[138.19675,37.17163],[138.1968,37.17158],[138.19681,37.17154],[138.19677,37.1715]]],[[[138.09259,37.17253],[138.09193,37.17207],[138.09185,37.17212],[138.09251,37.17261],[138.09259,37.17253]]],[[[138.24373,37.18741],[138.24298,37.18495],[138.24367,37.18742],[138.24373,37.18741]]],[[[138.26318,37.20059],[138.2665,37.20012],[138.26743,37.20064],[138.26646,37.19993],[138.25983,37.20107],[138.26318,37.20059]]],[[[138.27449,37.21513],[138.28483,37.20465],[138.27548,37.19858],[138.27168,37.20255],[138.27028,37.20207],[138.27147,37.20276],[138.27008,37.20417],[138.27327,37.20645],[138.27166,37.20807],[138.27758,37.2118],[138.27454,37.21494],[138.27346,37.21523],[138.27449,37.21513]]],[[[138.38216,37.2765],[138.38212,37.27648],[138.38195,37.27668],[138.38184,37.27683],[138.38185,37.27688],[138.38206,37.2766],[138.38216,37.2765]]],[[[138.42032,37.30531],[138.423,37.30469],[138.42387,37.30394],[138.42402,37.30267],[138.42293,37.30156],[138.42129,37.30129],[138.41966,37.29987],[138.41999,37.29876],[138.41901,37.29578],[138.41962,37.29539],[138.41827,37.29498],[138.4183,37.29434],[138.42105,37.29399],[138.42166,37.29481],[138.42192,37.29419],[138.42274,37.29424],[138.424,37.2969],[138.42635,37.299],[138.42675,37.3002],[138.42801,37.30059],[138.42837,37.30223],[138.43097,37.30029],[138.43226,37.30073],[138.43079,37.30296],[138.43225,37.30295],[138.43382,37.30118],[138.43421,37.29985],[138.43337,37.29874],[138.43515,37.29817],[138.4364,37.29691],[138.43689,37.29493],[138.43872,37.29578],[138.43715,37.29442],[138.43906,37.29371],[138.44041,37.29396],[138.4439,37.29672],[138.44825,37.29702],[138.45375,37.29521],[138.45809,37.29267],[138.46282,37.29184],[138.46887,37.29242],[138.47016,37.2907],[138.47333,37.2898],[138.48278,37.28918],[138.48412,37.28964],[138.48595,37.2888],[138.4901,37.28807],[138.49869,37.28056],[138.503,37.27832],[138.50615,37.27741],[138.50672,37.27678],[138.50682,37.27493],[138.51017,37.27343],[138.51154,37.27316],[138.51544,37.27394],[138.5224,37.27647],[138.5255,37.27556],[138.53187,37.27108],[138.53435,37.26694],[138.53846,37.26612],[138.5423,37.26143],[138.54144,37.26039],[138.53688,37.26097],[138.53449,37.2621],[138.53369,37.26079],[138.53156,37.25963],[138.53068,37.25838],[138.52924,37.25786],[138.52789,37.25839],[138.51996,37.25252],[138.51826,37.24892],[138.51505,37.24641],[138.51472,37.24428],[138.51338,37.24171],[138.51515,37.24001],[138.51552,37.23834],[138.51341,37.23618],[138.51082,37.23497],[138.50869,37.23283],[138.50819,37.23136],[138.5061,37.23018],[138.50492,37.22854],[138.506,37.2278],[138.5049,37.22597],[138.51039,37.22475],[138.5124,37.225],[138.52047,37.22123],[138.52189,37.22125],[138.52503,37.21947],[138.52507,37.21858],[138.52678,37.2166],[138.52709,37.21187],[138.52686,37.20972],[138.52575,37.20781],[138.52757,37.20542],[138.53143,37.20467],[138.53242,37.20251],[138.53398,37.20192],[138.53652,37.19842],[138.53965,37.1987],[138.54529,37.20059],[138.5486,37.2018],[138.54994,37.20333],[138.55185,37.20395],[138.55354,37.20075],[138.55611,37.19855],[138.55662,37.19632],[138.55471,37.19504],[138.55386,37.19168],[138.55411,37.18982],[138.55566,37.1889],[138.55657,37.18729],[138.55961,37.18543],[138.56415,37.18473],[138.56544,37.18163],[138.56889,37.17899],[138.56797,37.17366],[138.56636,37.17072],[138.56466,37.17035],[138.56309,37.1691],[138.56397,37.16759],[138.56442,37.1648],[138.56565,37.16339],[138.56307,37.16013],[138.56332,37.15798],[138.56245,37.15566],[138.55883,37.15562],[138.55734,37.15215],[138.55354,37.15054],[138.55199,37.14814],[138.54913,37.14692],[138.54739,37.14305],[138.54427,37.14133],[138.54213,37.13908],[138.53768,37.13852],[138.53515,37.13743],[138.53156,37.1379],[138.52803,37.1373],[138.52738,37.13666],[138.52873,37.13413],[138.52533,37.12902],[138.52578,37.12719],[138.52933,37.12378],[138.5286,37.12184],[138.52901,37.12057],[138.52732,37.11866],[138.52712,37.11599],[138.52317,37.11148],[138.52458,37.10949],[138.5242,37.10822],[138.52453,37.10678],[138.52591,37.10532],[138.52802,37.10532],[138.52828,37.10405],[138.53082,37.10329],[138.53227,37.10086],[138.53406,37.10004],[138.53423,37.09884],[138.53281,37.09543],[138.53448,37.09447],[138.53475,37.09161],[138.53692,37.0911],[138.54149,37.08703],[138.5445,37.08571],[138.5433,37.08395],[138.54166,37.08349],[138.54059,37.07854],[138.53839,37.07771],[138.53844,37.07561],[138.53595,37.07182],[138.53735,37.06896],[138.5388,37.06759],[138.54135,37.06634],[138.54073,37.06537],[138.53772,37.06398],[138.53809,37.06196],[138.53702,37.06136],[138.53651,37.06026],[138.53712,37.05838],[138.53673,37.05599],[138.53818,37.05348],[138.53852,37.05124],[138.53989,37.04999],[138.54076,37.04772],[138.54035,37.04474],[138.53913,37.04306],[138.53684,37.04263],[138.53409,37.04081],[138.53234,37.0385],[138.5296,37.03777],[138.52547,37.03483],[138.52513,37.03392],[138.52569,37.03216],[138.52467,37.03038],[138.52091,37.02953],[138.51986,37.02783],[138.51409,37.02969],[138.51279,37.0278],[138.51047,37.02715],[138.5093,37.02761],[138.50788,37.02639],[138.50395,37.02608],[138.50242,37.02517],[138.50131,37.02511],[138.49933,37.02641],[138.49744,37.02645],[138.49216,37.02083],[138.49057,37.0199],[138.48621,37.0205],[138.48261,37.01983],[138.48227,37.021],[138.48141,37.02155],[138.47829,37.02016],[138.47552,37.01988],[138.47326,37.01851],[138.46801,37.01783],[138.46601,37.01861],[138.46211,37.01836],[138.4578,37.01963],[138.45513,37.01961],[138.45442,37.0173],[138.45084,37.01494],[138.44575,37.01337],[138.4428,37.01309],[138.43951,37.01012],[138.43753,37.00982],[138.43584,37.00786],[138.43138,37.00608],[138.42728,37.00626],[138.42256,37.0053],[138.42001,37.00341],[138.4138,37.00205],[138.41225,37.00243],[138.41104,36.99866],[138.41055,36.99845],[138.40845,36.99877],[138.40669,36.99798],[138.40043,36.99786],[138.39639,36.99635],[138.39468,36.99718],[138.39382,36.99523],[138.39454,36.99421],[138.39192,36.99284],[138.39028,36.99126],[138.39089,36.98885],[138.38896,36.98643],[138.3842,36.98308],[138.37828,36.98025],[138.3768,36.98005],[138.37363,36.97762],[138.37127,36.97706],[138.36871,36.97803],[138.36592,36.97622],[138.36287,36.97561],[138.36184,36.97605],[138.36136,36.97708],[138.35904,36.9777],[138.35745,36.97621],[138.35399,36.97568],[138.35283,36.97641],[138.3505,36.97612],[138.3474,36.97673],[138.348,36.97867],[138.3463,36.98276],[138.34437,36.98278],[138.34345,36.98344],[138.34301,36.98398],[138.34324,36.98519],[138.34254,36.986],[138.33454,36.98757],[138.33345,36.98871],[138.33278,36.99101],[138.33001,36.99216],[138.32659,36.9926],[138.32549,36.9937],[138.32246,36.99329],[138.32052,36.99433],[138.31807,36.99381],[138.31602,36.99415],[138.31528,36.99576],[138.31199,36.99727],[138.31109,36.99846],[138.30922,36.99699],[138.30686,36.99644],[138.30391,36.99866],[138.30263,36.9971],[138.29614,36.99757],[138.29481,36.99919],[138.29422,37.0013],[138.29209,37.00202],[138.29142,37.00305],[138.2916,37.00457],[138.28953,37.00491],[138.28946,37.00536],[138.28881,37.00486],[138.2879,37.00531],[138.29032,37.00564],[138.29097,37.00634],[138.28687,37.0122],[138.28875,37.01773],[138.2881,37.02107],[138.28856,37.02215],[138.28657,37.02428],[138.28483,37.02506],[138.2846,37.02683],[138.28351,37.02764],[138.2821,37.03294],[138.28276,37.03427],[138.27885,37.03343],[138.28045,37.03602],[138.28156,37.03957],[138.2829,37.04135],[138.28302,37.04269],[138.28029,37.0446],[138.28004,37.04369],[138.27801,37.04444],[138.27864,37.0453],[138.27587,37.04687],[138.27446,37.04578],[138.2733,37.04575],[138.27215,37.04366],[138.27085,37.04312],[138.2672,37.0496],[138.26747,37.05068],[138.2685,37.05152],[138.26917,37.05111],[138.27841,37.05177],[138.27865,37.05242],[138.27442,37.05332],[138.27452,37.05466],[138.27378,37.05519],[138.27895,37.06213],[138.27966,37.06567],[138.27558,37.06471],[138.27571,37.0651],[138.27459,37.06522],[138.27454,37.06412],[138.27394,37.06427],[138.27376,37.06504],[138.26982,37.06587],[138.2692,37.0636],[138.26851,37.06385],[138.26861,37.06466],[138.2666,37.06486],[138.26639,37.06542],[138.26428,37.06543],[138.26344,37.0574],[138.26263,37.05778],[138.26171,37.05734],[138.26056,37.05903],[138.25719,37.05916],[138.25414,37.06148],[138.25306,37.06127],[138.25302,37.06481],[138.24978,37.06812],[138.24937,37.06927],[138.24815,37.06912],[138.24872,37.06736],[138.24848,37.06528],[138.24177,37.0661],[138.24129,37.06692],[138.23676,37.0665],[138.23702,37.06786],[138.24245,37.06872],[138.24208,37.06975],[138.23917,37.06931],[138.23847,37.07007],[138.23768,37.06983],[138.23799,37.06856],[138.23262,37.06771],[138.23263,37.06823],[138.23139,37.06828],[138.23137,37.06767],[138.22959,37.06741],[138.22581,37.06518],[138.224,37.06547],[138.21884,37.06483],[138.21382,37.06663],[138.21046,37.06971],[138.20783,37.07072],[138.20637,37.06901],[138.20649,37.06754],[138.20182,37.06767],[138.19694,37.06679],[138.19544,37.06619],[138.19421,37.06452],[138.19078,37.0624],[138.18633,37.06308],[138.18441,37.06161],[138.18255,37.06116],[138.17832,37.06135],[138.17727,37.06089],[138.17583,37.05876],[138.17832,37.05636],[138.17896,37.05447],[138.18121,37.05175],[138.1806,37.05032],[138.18306,37.04591],[138.1827,37.04422],[138.17696,37.04325],[138.17107,37.04487],[138.16803,37.04408],[138.16655,37.04424],[138.16535,37.04524],[138.16265,37.0451],[138.15854,37.04344],[138.1584,37.03984],[138.15921,37.03802],[138.15917,37.03653],[138.15827,37.03561],[138.14733,37.03136],[138.14481,37.0317],[138.14187,37.03097],[138.13791,37.03097],[138.13807,37.02873],[138.13537,37.02508],[138.13589,37.02424],[138.13517,37.02194],[138.13705,37.01936],[138.13711,37.01834],[138.139,37.01681],[138.1408,37.01109],[138.1377,37.00938],[138.13826,37.00846],[138.13786,37.00733],[138.13925,37.00386],[138.13865,37.00165],[138.1403,36.99899],[138.14036,36.99749],[138.13789,36.99298],[138.13465,36.99027],[138.13167,36.98943],[138.13011,36.98322],[138.13053,36.98159],[138.12951,36.97657],[138.12979,36.97405],[138.1323,36.97277],[138.13371,36.96889],[138.13707,36.96937],[138.13927,36.97086],[138.14111,36.9707],[138.14496,36.96768],[138.14966,36.96699],[138.15298,36.96457],[138.15396,36.9644],[138.15598,36.96699],[138.16137,36.97086],[138.16709,36.97199],[138.17009,36.97488],[138.17194,36.97474],[138.17179,36.97393],[138.17251,36.97305],[138.17194,36.97235],[138.17305,36.97065],[138.17418,36.97036],[138.17588,36.9732],[138.17599,36.97439],[138.17785,36.97504],[138.17778,36.97623],[138.17887,36.97691],[138.17999,36.97968],[138.18136,36.98127],[138.1821,36.98084],[138.18437,36.98484],[138.18601,36.98475],[138.18732,36.98614],[138.18969,36.98629],[138.19441,36.98871],[138.19433,36.98951],[138.19636,36.98947],[138.19973,36.9906],[138.2013,36.99173],[138.20153,36.99552],[138.20093,36.99567],[138.20201,36.99632],[138.20181,36.99556],[138.20297,36.99569],[138.20255,36.9965],[138.20296,36.997],[138.20223,36.9976],[138.20279,36.99819],[138.20508,36.99839],[138.20414,36.99746],[138.20411,36.99666],[138.20472,36.99698],[138.20512,36.9963],[138.20367,36.99499],[138.20462,36.99422],[138.20611,36.99532],[138.20862,36.9957],[138.20976,36.99529],[138.21055,36.99569],[138.21143,36.9973],[138.2139,36.99853],[138.21419,36.99957],[138.21506,36.9992],[138.21763,37.00001],[138.21846,37.00054],[138.21823,37.00129],[138.2193,37.00196],[138.22097,37.00018],[138.21962,36.99913],[138.22064,36.99877],[138.22005,36.99768],[138.22116,36.99709],[138.22152,36.99738],[138.22246,36.99651],[138.22261,36.99481],[138.22212,36.99388],[138.21904,36.99119],[138.21129,36.98616],[138.20791,36.98314],[138.20594,36.98027],[138.20604,36.9792],[138.20663,36.97925],[138.2084,36.98141],[138.20995,36.98191],[138.21059,36.98362],[138.21198,36.98407],[138.21194,36.98525],[138.21501,36.98587],[138.21476,36.9867],[138.21652,36.9872],[138.21812,36.98885],[138.2198,36.98924],[138.22026,36.99075],[138.22324,36.99161],[138.22313,36.99328],[138.22461,36.99383],[138.22687,36.99344],[138.22706,36.99576],[138.22916,36.99564],[138.22821,36.99727],[138.22888,36.99801],[138.23077,36.99827],[138.22976,36.9991],[138.23182,37.00116],[138.23402,37.00178],[138.23444,37.00314],[138.23379,37.00367],[138.23547,37.00486],[138.23504,37.00637],[138.2374,37.00568],[138.23702,37.00817],[138.23766,37.00773],[138.23793,37.00832],[138.23711,37.00943],[138.23834,37.00978],[138.23917,37.00862],[138.24138,37.00905],[138.24263,37.00835],[138.24282,37.0096],[138.24499,37.00987],[138.24781,37.01139],[138.25039,37.01],[138.24931,37.00874],[138.24841,37.00048],[138.24535,36.99755],[138.24865,36.99697],[138.24895,36.99619],[138.24572,36.99468],[138.24614,36.99187],[138.24489,36.99161],[138.24344,36.99024],[138.2445,36.98803],[138.24457,36.98516],[138.24915,36.98204],[138.2502,36.97825],[138.24889,36.97587],[138.24687,36.97541],[138.2452,36.97365],[138.24544,36.97102],[138.24215,36.96696],[138.24248,36.9644],[138.23985,36.95667],[138.23747,36.95591],[138.23636,36.95275],[138.23535,36.95173],[138.2342,36.95122],[138.23185,36.95187],[138.23053,36.9507],[138.23088,36.94908],[138.23048,36.94692],[138.23138,36.94547],[138.2313,36.94421],[138.22984,36.94391],[138.22841,36.94255],[138.22881,36.94483],[138.22489,36.94458],[138.22491,36.94281],[138.22254,36.94279],[138.22266,36.94132],[138.2215,36.9409],[138.21755,36.94262],[138.21522,36.94217],[138.21194,36.94265],[138.21049,36.9418],[138.21284,36.94609],[138.21429,36.94683],[138.21302,36.9469],[138.20877,36.94981],[138.20854,36.95076],[138.2102,36.95229],[138.20888,36.95389],[138.20591,36.95232],[138.19567,36.95018],[138.19299,36.94785],[138.19067,36.94722],[138.18539,36.94712],[138.18417,36.94762],[138.17679,36.94584],[138.17346,36.94649],[138.17173,36.94617],[138.16684,36.94758],[138.16207,36.9449],[138.15859,36.94543],[138.15549,36.94435],[138.15407,36.94309],[138.15384,36.9416],[138.15111,36.94378],[138.15263,36.94434],[138.15298,36.94726],[138.15473,36.95089],[138.15321,36.95116],[138.15271,36.9499],[138.15157,36.95045],[138.15042,36.95026],[138.15012,36.94896],[138.14927,36.94895],[138.14802,36.9517],[138.14457,36.95271],[138.14213,36.9554],[138.1408,36.955],[138.13858,36.95573],[138.13748,36.95734],[138.13643,36.95714],[138.13595,36.95827],[138.13492,36.9579],[138.13119,36.95956],[138.12899,36.95962],[138.12486,36.96447],[138.12393,36.96454],[138.12368,36.9661],[138.11932,36.9679],[138.11355,36.97171],[138.11185,36.97185],[138.10974,36.97471],[138.10727,36.97613],[138.10464,36.97525],[138.10234,36.97133],[138.10002,36.97226],[138.09858,36.97358],[138.09525,36.97478],[138.0938,36.97612],[138.09614,36.98388],[138.09376,36.99071],[138.09435,36.99526],[138.09241,36.99876],[138.09234,37.00111],[138.09106,37.00268],[138.09045,37.00593],[138.08971,37.00711],[138.08946,37.01093],[138.08737,37.01451],[138.08782,37.01906],[138.08961,37.02336],[138.08841,37.02668],[138.08814,37.03018],[138.09034,37.0346],[138.08975,37.03569],[138.09082,37.04009],[138.09004,37.04264],[138.09294,37.04717],[138.09287,37.05024],[138.09443,37.05448],[138.09343,37.05678],[138.09565,37.06194],[138.0914,37.06457],[138.0906,37.06434],[138.08514,37.06954],[138.08493,37.07087],[138.08589,37.07288],[138.08722,37.07405],[138.08599,37.07641],[138.08712,37.07952],[138.0849,37.08064],[138.08237,37.08409],[138.08209,37.08852],[138.08095,37.09049],[138.07875,37.09074],[138.07744,37.09031],[138.07419,37.09153],[138.07408,37.09274],[138.07502,37.09528],[138.0744,37.09735],[138.07554,37.10269],[138.0774,37.10476],[138.08236,37.10854],[138.08226,37.11017],[138.08085,37.11232],[138.08266,37.11517],[138.08274,37.11664],[138.08444,37.12085],[138.08266,37.12427],[138.07929,37.1285],[138.07786,37.13293],[138.07784,37.13465],[138.07632,37.1368],[138.07455,37.13761],[138.0746,37.14043],[138.07315,37.14237],[138.07305,37.14487],[138.07065,37.1471],[138.06777,37.14817],[138.08008,37.15564],[138.08289,37.15795],[138.08384,37.16011],[138.08564,37.16188],[138.08482,37.16243],[138.08588,37.16235],[138.08461,37.16282],[138.08639,37.16497],[138.08703,37.16926],[138.08673,37.16616],[138.08778,37.16546],[138.08963,37.16752],[138.08983,37.16858],[138.08776,37.16818],[138.09002,37.16866],[138.09151,37.17017],[138.09564,37.17265],[138.10046,37.17396],[138.10179,37.17406],[138.10582,37.17262],[138.11257,37.17212],[138.11665,37.17076],[138.12269,37.1703],[138.127,37.16837],[138.131,37.16464],[138.1334,37.16355],[138.13873,37.16399],[138.13921,37.1654],[138.1419,37.16625],[138.13943,37.16536],[138.13906,37.1643],[138.14218,37.164],[138.14232,37.16472],[138.14153,37.16557],[138.14247,37.16482],[138.14212,37.16355],[138.14663,37.16379],[138.1498,37.16141],[138.15163,37.16113],[138.16357,37.16215],[138.16462,37.16217],[138.16529,37.16238],[138.16491,37.16257],[138.16623,37.16199],[138.16914,37.16216],[138.17049,37.16299],[138.17768,37.1643],[138.17834,37.16506],[138.17783,37.16536],[138.17893,37.16559],[138.17876,37.16514],[138.1795,37.1648],[138.18137,37.16524],[138.19397,37.16987],[138.19879,37.17009],[138.19868,37.17108],[138.1983,37.171],[138.19909,37.17125],[138.19874,37.17109],[138.1996,37.17074],[138.1994,37.16999],[138.20536,37.16968],[138.20723,37.16805],[138.21956,37.17005],[138.22041,37.17073],[138.2254,37.17197],[138.23344,37.17498],[138.23412,37.17583],[138.23705,37.17688],[138.23818,37.17878],[138.23938,37.17891],[138.24353,37.18114],[138.24461,37.18281],[138.24382,37.1838],[138.24465,37.18285],[138.24692,37.18401],[138.2463,37.18642],[138.25299,37.20507],[138.25664,37.20831],[138.25321,37.20496],[138.24644,37.18653],[138.24669,37.18534],[138.24732,37.1853],[138.2494,37.18251],[138.25194,37.18398],[138.25241,37.18318],[138.25316,37.18346],[138.25525,37.18448],[138.25463,37.18473],[138.25459,37.18561],[138.25282,37.18472],[138.24961,37.18767],[138.25214,37.19091],[138.25587,37.18747],[138.25815,37.1888],[138.25489,37.1918],[138.26486,37.19774],[138.265,37.1985],[138.26494,37.19778],[138.26741,37.19494],[138.26383,37.19281],[138.2644,37.19215],[138.27041,37.19552],[138.27096,37.19611],[138.27316,37.19744],[138.27612,37.19833],[138.27885,37.19995],[138.2791,37.20074],[138.27944,37.20034],[138.28788,37.2056],[138.28973,37.20721],[138.28713,37.20983],[138.28926,37.20781],[138.29167,37.20886],[138.29261,37.20965],[138.29127,37.21102],[138.29275,37.2097],[138.29383,37.21009],[138.29698,37.21269],[138.29869,37.21324],[138.30247,37.21579],[138.30311,37.21636],[138.30283,37.2168],[138.30347,37.21628],[138.30397,37.21735],[138.30654,37.2186],[138.30568,37.21955],[138.30634,37.2205],[138.30585,37.21949],[138.30653,37.21882],[138.30737,37.21937],[138.30675,37.22001],[138.30772,37.2192],[138.30946,37.22051],[138.30741,37.22282],[138.30942,37.22123],[138.3116,37.22194],[138.31563,37.2247],[138.32762,37.23397],[138.32614,37.23541],[138.32566,37.23514],[138.3266,37.23577],[138.32618,37.23543],[138.32765,37.234],[138.32898,37.23481],[138.33762,37.2419],[138.34111,37.24394],[138.3414,37.24495],[138.34435,37.24655],[138.35552,37.25482],[138.37441,37.26988],[138.37498,37.27078],[138.37401,37.27145],[138.37484,37.27278],[138.37416,37.27145],[138.37481,37.27159],[138.37448,37.27121],[138.37514,37.27072],[138.37592,37.2715],[138.3751,37.27185],[138.37525,37.2723],[138.37667,37.27226],[138.38192,37.27572],[138.38227,37.27671],[138.38188,37.27713],[138.38542,37.27928],[138.38779,37.28135],[138.38824,37.28236],[138.39342,37.28594],[138.41208,37.30109],[138.41796,37.30649],[138.42022,37.30532],[138.42032,37.30531]]]]}},{"type":"Feature","properties":{"code":"2736600","regionName":"大阪府岬町","name":"岬町","nameKana":"みさきちょう"},"geometry":{"type":"MultiPolygon","coordinates":[[[[135.09141,34.3139],[135.09156,34.31318],[135.09133,34.3139],[135.09141,34.3139]]],[[[135.13893,34.32217],[135.13799,34.32113],[135.1379,34.3216],[135.13893,34.32217]]],[[[135.11896477943782,34.32376796499935],[135.11915,34.32347],[135.11978,34.32356],[135.11896477943782,34.32376796499935]]],[[[135.11896477943782,34.32376796499935],[135.1188,34.32381],[135.11858,34.32423],[135.11922,34.32453],[135.11953,34.32468],[135.11869,34.32421],[135.11896477943782,34.32376796499935]]],[[[135.14503,34.32288],[135.14419,34.32459],[135.14477,34.32514],[135.14427,34.32458],[135.14478,34.32345],[135.14503,34.32288]]],[[[135.17941831523783,34.33783562730117],[135.17807,34.33669],[135.18035,34.33626],[135.1804,34.33667],[135.18204,34.33673],[135.18064,34.33644],[135.18265,34.33626],[135.18311,34.33722],[135.18301,34.33644],[135.18697,34.33666],[135.18692,34.33749],[135.18702,34.33666],[135.18931,34.33707],[135.18926,34.33767],[135.18943,34.3371],[135.19096,34.33733],[135.19158,34.33775],[135.19123,34.33816],[135.19234,34.33861],[135.19213,34.33794],[135.19312,34.33813],[135.19391,34.33636],[135.19159,34.33516],[135.18975,34.33267],[135.18813,34.33189],[135.1888,34.33023],[135.18943,34.3302],[135.18936,34.32906],[135.19156,34.32905],[135.19232,34.32962],[135.19324,34.32742],[135.19303,34.32633],[135.19388,34.32508],[135.19354,34.32286],[135.19423,34.32238],[135.19362,34.32119],[135.19193,34.3212],[135.1885,34.31952],[135.18926,34.31849],[135.19067,34.31834],[135.19162,34.31245],[135.19483,34.31087],[135.19862,34.31237],[135.19987,34.31195],[135.2018,34.31238],[135.20361,34.30869],[135.20768,34.3092],[135.20846,34.30719],[135.20856,34.30309],[135.20521,34.30038],[135.20431,34.29794],[135.20491,34.29615],[135.20436,34.29055],[135.20518,34.28835],[135.20277,34.2876],[135.20157,34.28825],[135.19981,34.28747],[135.19871,34.28806],[135.19637,34.28602],[135.19392,34.287],[135.1918,34.2866],[135.18967,34.28283],[135.18781,34.28322],[135.18489,34.28112],[135.18432,34.27883],[135.18034,34.2799],[135.17863,34.27889],[135.17693,34.27972],[135.17178,34.28061],[135.17016,34.27991],[135.16685,34.27993],[135.1655,34.27875],[135.16328,34.27861],[135.16094,34.27745],[135.16028,34.27794],[135.1587,34.27702],[135.15741,34.27708],[135.1536,34.27426],[135.15231,34.2747],[135.154,34.27657],[135.15335,34.27901],[135.1548,34.28104],[135.15377,34.2814],[135.15325,34.2824],[135.1509,34.28226],[135.14796,34.28386],[135.14676,34.28381],[135.14338,34.28041],[135.14103,34.28201],[135.13964,34.28189],[135.13905,34.28063],[135.13955,34.28024],[135.1394,34.27938],[135.13858,34.27861],[135.13832,34.27681],[135.13773,34.27625],[135.13749,34.27514],[135.13793,34.27459],[135.13662,34.27351],[135.1312,34.27249],[135.12899,34.27479],[135.12878,34.27598],[135.12567,34.27745],[135.12347,34.27627],[135.12261,34.27479],[135.12147,34.27489],[135.12083,34.2738],[135.11701,34.27307],[135.11554,34.27408],[135.1139,34.27437],[135.11195,34.27346],[135.11141,34.27183],[135.11033,34.27273],[135.1103,34.27379],[135.10859,34.27598],[135.10845,34.27763],[135.10736,34.27846],[135.10745,34.27966],[135.10907,34.28267],[135.10864,34.28399],[135.10546,34.28462],[135.10306,34.28628],[135.10139,34.28581],[135.10126,34.28687],[135.09864,34.28922],[135.09978,34.29268],[135.09915,34.29456],[135.09709,34.29582],[135.09676,34.29664],[135.09842,34.29882],[135.10007,34.29944],[135.10031,34.30044],[135.10341,34.30209],[135.10463,34.30426],[135.10641,34.3058],[135.10607,34.3086],[135.10474,34.30897],[135.1047,34.30975],[135.10337,34.30982],[135.10353,34.31114],[135.09708,34.30794],[135.09283,34.31201],[135.09377,34.31296],[135.09349,34.31199],[135.09411,34.31287],[135.09299,34.31357],[135.09345,34.31382],[135.09418,34.31313],[135.0946,34.3139],[135.09208,34.31465],[135.09196,34.31389],[135.09192,34.31506],[135.09453,34.31525],[135.0961,34.31428],[135.09816,34.31456],[135.09928,34.31528],[135.09948,34.31633],[135.10206,34.31978],[135.10857,34.32156],[135.11338,34.322],[135.11604,34.32282],[135.11711,34.32221],[135.11797,34.32284],[135.11726,34.32224],[135.11849,34.32116],[135.11933,34.3217],[135.11844,34.32248],[135.11933,34.32177],[135.12039,34.32294],[135.12013,34.32335],[135.12266,34.31992],[135.12287,34.32056],[135.12125,34.32232],[135.12184,34.32285],[135.1211,34.32292],[135.12105,34.32372],[135.12055,34.32373],[135.12471,34.32536],[135.12738,34.3244],[135.13056,34.32617],[135.13319,34.323],[135.12987,34.32129],[135.13014,34.32048],[135.13398,34.31911],[135.13516,34.32045],[135.13555,34.3203],[135.13472,34.31915],[135.13914,34.31864],[135.14124,34.31966],[135.14143,34.32042],[135.14132,34.31962],[135.13937,34.31874],[135.14015,34.3177],[135.14256,34.31969],[135.14376,34.31921],[135.14338,34.32078],[135.14205,34.32111],[135.14534,34.32187],[135.14525,34.32312],[135.14575,34.32361],[135.14546,34.32198],[135.14814,34.32333],[135.14773,34.32381],[135.14602,34.32294],[135.14768,34.32389],[135.14648,34.32534],[135.14501,34.32458],[135.14737,34.32596],[135.14918,34.32608],[135.15067,34.32843],[135.15126,34.3283],[135.1527,34.32994],[135.15294,34.33115],[135.1569,34.33199],[135.16033,34.33099],[135.16382,34.33151],[135.16392,34.33202],[135.16419,34.33169],[135.16497,34.33214],[135.16469,34.33248],[135.16501,34.33214],[135.16561,34.33254],[135.16549,34.33304],[135.1663,34.33304],[135.16626,34.33362],[135.16691,34.33356],[135.16793,34.33509],[135.16824,34.33484],[135.16871,34.3365],[135.17037,34.33723],[135.16921,34.33661],[135.1699,34.33585],[135.17175,34.33651],[135.16991,34.3354],[135.17094,34.33505],[135.17284,34.33621],[135.17157,34.33769],[135.1709,34.33748],[135.17163,34.33781],[135.1732,34.33649],[135.17354,34.33703],[135.17629,34.33781],[135.17923614495498,34.33987512073131],[135.17833,34.33912],[135.17904,34.33852],[135.17828,34.33908],[135.17674,34.33754],[135.17738,34.3376],[135.17794,34.3368],[135.17898,34.33764],[135.17844,34.3382],[135.17941831523783,34.33783562730117]]],[[[135.18005309785164,34.33759920355418],[135.1804,34.33747],[135.18221,34.33879],[135.1804,34.3373],[135.18005309785164,34.33759920355418]]],[[[135.18116664355605,34.34029773013197],[135.18338,34.33878],[135.18152,34.34021],[135.18116664355605,34.34029773013197]]],[[[135.18018628570204,34.34054112862758],[135.18047,34.34074],[135.18058,34.3407],[135.18116664355605,34.34029773013197],[135.18018628570204,34.34054112862758]]],[[[135.17941831523783,34.33783562730117],[135.18005309785164,34.33759920355418],[135.1796,34.33799],[135.17941831523783,34.33783562730117]]],[[[135.17923614495498,34.33987512073131],[135.18018628570204,34.34054112862758],[135.18007,34.34057],[135.17923614495498,34.33987512073131]]]]}},{"type":"Feature","properties":{"code":"3820600","regionName":"愛媛県西条市","name":"西条市","nameKana":"さいじょうし"},"geometry":{"type":"MultiPolygon","coordinates":[[[[133.1055,33.95289],[133.10094,33.94936],[133.1059,33.95306],[133.1055,33.95289]]],[[[133.08751,33.95303],[133.08773,33.95262],[133.08745,33.95303],[133.08751,33.95303]]],[[[133.11212,33.95503],[133.11221,33.95304],[133.11459,33.95154],[133.11209,33.95299],[133.11205,33.95502],[133.11212,33.95503]]],[[[133.10687,33.95402],[133.10551,33.95351],[133.10983,33.95655],[133.11085,33.95691],[133.10789,33.95485],[133.10687,33.95402]]],[[[133.06711,33.97542],[133.06707,33.9754],[133.06705,33.97542],[133.0671,33.97545],[133.06711,33.97544],[133.06712,33.97543],[133.06711,33.97542]]],[[[133.06615,33.9823],[133.06522,33.98219],[133.06468,33.98125],[133.06257,33.98084],[133.06232,33.97996],[133.06114,33.97923],[133.06201,33.97634],[133.0647,33.97356],[133.06817,33.97536],[133.07015,33.97343],[133.0695,33.97297],[133.0705,33.97187],[133.06953,33.97286],[133.06901,33.97253],[133.07025,33.97119],[133.07152,33.97192],[133.07395,33.96915],[133.07325,33.96803],[133.07361,33.96759],[133.08038,33.96095],[133.0854,33.95699],[133.08589,33.95796],[133.08595,33.95722],[133.08682,33.95753],[133.08667,33.95575],[133.08517,33.95596],[133.08696,33.95355],[133.08686,33.95237],[133.08907,33.95039],[133.08807,33.9499],[133.08818,33.94916],[133.08591,33.94847],[133.08647,33.94791],[133.08701,33.94817],[133.08649,33.94787],[133.08781,33.94603],[133.0887,33.94643],[133.08777,33.946],[133.08828,33.94542],[133.09395,33.9483],[133.09523,33.94947],[133.0982,33.94687],[133.10113,33.94919],[133.09837,33.94649],[133.09624,33.94836],[133.09496,33.94764],[133.09719,33.94547],[133.09256,33.94144],[133.09327,33.94062],[133.09361,33.94037],[133.09788,33.94342],[133.09933,33.94159],[133.09905,33.94112],[133.10119,33.94068],[133.10294,33.94277],[133.10364,33.94277],[133.10628,33.94678],[133.10672,33.94652],[133.10776,33.94776],[133.11932,33.94108],[133.1158,33.93685],[133.11691,33.93581],[133.11674,33.93429],[133.11234,33.93052],[133.11601,33.9265],[133.11899,33.9245],[133.11797,33.93088],[133.11962,33.93296],[133.12017,33.93282],[133.12006,33.93675],[133.12368,33.94002],[133.12481,33.93975],[133.12498,33.94083],[133.1258,33.9415],[133.1275,33.9413],[133.1259,33.93171],[133.12878,33.92954],[133.13339,33.92718],[133.13544,33.92793],[133.13514,33.9287],[133.13349,33.92943],[133.13529,33.92881],[133.13561,33.92797],[133.13754,33.92846],[133.14002,33.9279],[133.1679,33.93817],[133.16673,33.94096],[133.17143,33.93259],[133.17168,33.93182],[133.16997,33.93021],[133.17141,33.92758],[133.1751,33.92936],[133.17449,33.93016],[133.17682,33.93075],[133.17088,33.9416],[133.17203,33.9399],[133.18039,33.9419],[133.17825,33.94759],[133.18595,33.94945],[133.18795,33.94373],[133.19003,33.94421],[133.18989,33.94524],[133.19028,33.94436],[133.19185,33.94506],[133.19164,33.94566],[133.19192,33.94508],[133.19576,33.94601],[133.19797,33.9359],[133.20018,33.93584],[133.20067,33.93537],[133.20171,33.93586],[133.20041,33.93596],[133.20066,33.93707],[133.20068,33.93606],[133.20183,33.93656],[133.20168,33.93746],[133.20061,33.93744],[133.19931,33.94621],[133.22983,33.95136],[133.22931,33.95743],[133.23007,33.95171],[133.23045,33.95139],[133.23416,33.95205],[133.23587,33.94786],[133.23552,33.94382],[133.23446,33.94263],[133.23407,33.94165],[133.23442,33.94082],[133.23358,33.93987],[133.23388,33.93774],[133.23736,33.93736],[133.23837,33.93899],[133.23966,33.93955],[133.24057,33.9383],[133.24171,33.9345],[133.24474,33.93078],[133.24596,33.92486],[133.24515,33.92326],[133.24734,33.91913],[133.24548,33.91903],[133.2449,33.91671],[133.24107,33.91526],[133.24118,33.91367],[133.23965,33.91037],[133.24261,33.90841],[133.24334,33.90646],[133.24496,33.90458],[133.24476,33.90287],[133.24586,33.89978],[133.24804,33.89843],[133.25092,33.89424],[133.25055,33.88759],[133.25173,33.8863],[133.25196,33.88442],[133.25468,33.88371],[133.25427,33.88262],[133.25525,33.88138],[133.25378,33.87685],[133.252,33.87614],[133.24955,33.87656],[133.24791,33.87479],[133.24581,33.87433],[133.24871,33.8716],[133.24838,33.87076],[133.25076,33.86648],[133.25083,33.86507],[133.25349,33.86384],[133.25783,33.86354],[133.26145,33.85987],[133.26274,33.85968],[133.26348,33.85894],[133.26674,33.85873],[133.26811,33.85755],[133.26836,33.85591],[133.26955,33.85385],[133.26897,33.85093],[133.27018,33.84939],[133.27203,33.84875],[133.27277,33.84792],[133.27229,33.84645],[133.27285,33.84559],[133.2725,33.84475],[133.27427,33.8417],[133.27503,33.83896],[133.27457,33.8378],[133.27479,33.83557],[133.27736,33.83092],[133.27451,33.82806],[133.26921,33.82562],[133.26756,33.82388],[133.26769,33.82101],[133.26539,33.81882],[133.26513,33.81682],[133.2641,33.81496],[133.2607,33.81097],[133.26106,33.80698],[133.26244,33.80474],[133.26151,33.80342],[133.26085,33.80075],[133.25845,33.79804],[133.25718,33.79386],[133.25487,33.79165],[133.25245,33.79063],[133.25111,33.7889],[133.24769,33.7881],[133.24594,33.78895],[133.23692,33.78273],[133.2312,33.78391],[133.22579,33.78268],[133.22346,33.78083],[133.22052,33.78029],[133.21734,33.78247],[133.21554,33.78561],[133.21294,33.78771],[133.21227,33.7889],[133.2102,33.78971],[133.20646,33.79295],[133.20571,33.79451],[133.19297,33.79392],[133.19026,33.78719],[133.19076,33.78575],[133.19047,33.78363],[133.18858,33.78206],[133.18714,33.77945],[133.18726,33.77737],[133.18237,33.77148],[133.18377,33.76835],[133.18262,33.76656],[133.18057,33.76549],[133.17992,33.76402],[133.17679,33.7638],[133.17574,33.76075],[133.1726,33.75827],[133.17092,33.75754],[133.16498,33.75661],[133.16355,33.75421],[133.15784,33.7503],[133.14956,33.75362],[133.14575,33.75703],[133.14023,33.75814],[133.13713,33.76042],[133.13569,33.76065],[133.13427,33.76197],[133.13409,33.76386],[133.13332,33.7648],[133.12718,33.76581],[133.12428,33.76712],[133.12138,33.76622],[133.11904,33.76675],[133.11708,33.76643],[133.10898,33.77284],[133.10455,33.7717],[133.10212,33.76914],[133.10206,33.76671],[133.10056,33.76225],[133.09798,33.76173],[133.09375,33.75852],[133.09066,33.75835],[133.08854,33.75764],[133.08673,33.75804],[133.08536,33.75671],[133.08292,33.75639],[133.07702,33.75834],[133.07342,33.75887],[133.07182,33.75773],[133.06936,33.7575],[133.06694,33.75603],[133.06143,33.7562],[133.05811,33.75523],[133.0557,33.75593],[133.05305,33.75885],[133.05089,33.7587],[133.04825,33.7596],[133.04414,33.7589],[133.04169,33.76032],[133.03794,33.76096],[133.03521,33.76208],[133.03401,33.76318],[133.03139,33.76336],[133.02929,33.7623],[133.02592,33.76226],[133.02412,33.76289],[133.02316,33.76403],[133.0193,33.76604],[133.0181,33.76799],[133.01802,33.76961],[133.01909,33.77331],[133.01745,33.77491],[133.01683,33.77939],[133.01874,33.7813],[133.02332,33.78304],[133.02327,33.78537],[133.02293,33.78609],[133.02126,33.78674],[133.02091,33.78769],[133.02193,33.78843],[133.02218,33.78948],[133.02144,33.79166],[133.02049,33.7918],[133.01919,33.79298],[133.0175,33.79918],[133.01551,33.80171],[133.0142,33.80222],[133.01306,33.80366],[133.01349,33.80733],[133.0118,33.81054],[133.01292,33.81347],[133.00975,33.81495],[133.00694,33.81401],[132.99998,33.81697],[132.99817,33.81586],[132.99683,33.81586],[132.99501,33.81711],[132.992,33.81553],[132.99082,33.81363],[132.98799,33.8118],[132.98621,33.81186],[132.98494,33.81374],[132.98345,33.81451],[132.98385,33.81486],[132.98258,33.81687],[132.98284,33.81904],[132.98088,33.821],[132.98108,33.82226],[132.97951,33.8256],[132.9797,33.82736],[132.97811,33.82738],[132.97615,33.82907],[132.97321,33.83006],[132.97339,33.83513],[132.97277,33.83835],[132.97176,33.83992],[132.96953,33.84132],[132.9697,33.8427],[132.96779,33.84637],[132.96877,33.84833],[132.97202,33.8513],[132.97291,33.85386],[132.97449,33.85519],[132.97449,33.85672],[132.97386,33.85877],[132.97279,33.85865],[132.97098,33.86035],[132.9706,33.86117],[132.9714,33.86426],[132.96877,33.86859],[132.96241,33.87104],[132.95968,33.87519],[132.96048,33.87558],[132.96071,33.87834],[132.95671,33.88457],[132.95697,33.88653],[132.95929,33.88811],[132.95865,33.8909],[132.96022,33.89283],[132.96049,33.89429],[132.95961,33.8963],[132.95962,33.89877],[132.95855,33.89983],[132.95968,33.90112],[132.95973,33.90233],[132.96112,33.90302],[132.96236,33.90518],[132.96387,33.90554],[132.96445,33.90662],[132.96821,33.90649],[132.9706,33.90516],[132.97348,33.90678],[132.97396,33.90837],[132.97365,33.91012],[132.97562,33.91106],[132.97573,33.91229],[132.97414,33.91492],[132.97498,33.91582],[132.97508,33.91961],[132.9742,33.9205],[132.97431,33.92163],[132.9735,33.92304],[132.97431,33.92525],[132.97572,33.92592],[132.97509,33.92866],[132.97588,33.92978],[132.97551,33.93272],[132.9749,33.93357],[132.97499,33.93542],[132.97756,33.93645],[132.97732,33.93824],[132.97888,33.94049],[132.97766,33.94273],[132.97731,33.94507],[132.97883,33.94689],[132.97863,33.94836],[132.9838,33.95102],[132.98692,33.95374],[132.98681,33.95527],[132.99108,33.95696],[132.99462,33.95652],[132.99688,33.95557],[133.0021,33.95673],[133.0036,33.95809],[133.00548,33.95793],[133.00814,33.95467],[133.01269,33.95765],[133.01563,33.95742],[133.0171,33.95876],[133.01793,33.96185],[133.02221,33.96058],[133.02313,33.96081],[133.02407,33.96265],[133.02954,33.96074],[133.03551,33.96013],[133.03518,33.96304],[133.03657,33.96373],[133.03649,33.96462],[133.03782,33.96664],[133.04075,33.96764],[133.0405,33.96953],[133.03937,33.97038],[133.03887,33.97163],[133.03946,33.97287],[133.03913,33.97424],[133.03952,33.97563],[133.04141,33.9765],[133.04149,33.97772],[133.05078,33.98016],[133.05202,33.98145],[133.05372,33.98196],[133.05561,33.9813],[133.05798,33.98207],[133.06095,33.98208],[133.06192,33.98265],[133.06621,33.98239],[133.06615,33.9823]]]]}},{"type":"Feature","properties":{"code":"4420200","regionName":"大分県別府市","name":"別府市","nameKana":"べっぷし"},"geometry":{"type":"MultiPolygon","coordinates":[[[[131.50705,33.28317],[131.50703,33.28316],[131.50697,33.28333],[131.50685,33.28372],[131.50687,33.28373],[131.507,33.28333],[131.50705,33.28317]]],[[[131.50679,33.28397],[131.50677,33.28397],[131.5065,33.28479],[131.50653,33.2848],[131.50679,33.28397]]],[[[131.50645,33.28505],[131.50642,33.28504],[131.50624,33.2856],[131.50627,33.28561],[131.50645,33.28505]]],[[[131.50536,33.29534],[131.50527,33.29526],[131.50519,33.29533],[131.50528,33.29541],[131.50536,33.29534]]],[[[131.50757,33.30791],[131.50758,33.30157],[131.50875,33.29922],[131.50774,33.30833],[131.50757,33.30791]]],[[[131.50632,33.29611],[131.5062,33.296],[131.50612,33.29607],[131.50625,33.29617],[131.50632,33.29611]]],[[[131.47176,33.35369],[131.47293,33.35404],[131.47775,33.35284],[131.47885,33.35339],[131.48259,33.35208],[131.48276,33.35176],[131.47978,33.34948],[131.47995,33.34883],[131.48152,33.34896],[131.48092,33.3499],[131.48169,33.35085],[131.48474,33.35264],[131.4865,33.35229],[131.48662,33.35128],[131.48748,33.35166],[131.48803,33.35074],[131.49029,33.35088],[131.49169,33.34972],[131.49254,33.34966],[131.49402,33.35061],[131.49686,33.35047],[131.49665,33.3482],[131.49592,33.34693],[131.49641,33.34631],[131.4954,33.34344],[131.49714,33.34303],[131.49721,33.34246],[131.49661,33.34289],[131.49617,33.34256],[131.49529,33.33964],[131.49696,33.3394],[131.497,33.33985],[131.4974,33.33939],[131.49642,33.33243],[131.49694,33.33234],[131.49592,33.33241],[131.49593,33.33115],[131.49701,33.33112],[131.49593,33.33111],[131.49595,33.3298],[131.49752,33.32982],[131.49736,33.33243],[131.49777,33.33248],[131.49749,33.32805],[131.49669,33.32769],[131.49788,33.32758],[131.49681,33.32731],[131.49664,33.32647],[131.49609,33.32638],[131.49726,33.32542],[131.49672,33.32632],[131.49752,33.32713],[131.49893,33.32392],[131.50071,33.32434],[131.50258,33.32201],[131.5001,33.31914],[131.50041,33.31733],[131.50246,33.31543],[131.5017,33.31165],[131.50254,33.31039],[131.50425,33.31014],[131.50437,33.30188],[131.50316,33.30129],[131.50317,33.30024],[131.50494,33.30048],[131.50494,33.29998],[131.50341,33.299],[131.50343,33.29788],[131.50494,33.29801],[131.50503,33.2975],[131.50492,33.298],[131.50413,33.2972],[131.50424,33.29595],[131.50487,33.29571],[131.50593,33.29642],[131.50493,33.29556],[131.50426,33.29587],[131.50442,33.29475],[131.50526,33.29481],[131.50435,33.2944],[131.50509,33.29121],[131.50549,33.29042],[131.50599,33.2906],[131.50529,33.29028],[131.50574,33.28922],[131.50526,33.2902],[131.5043,33.29005],[131.50447,33.28915],[131.5053,33.28923],[131.50448,33.28912],[131.50454,33.28874],[131.50669,33.28853],[131.5076,33.28683],[131.50669,33.28845],[131.50563,33.28861],[131.50618,33.28687],[131.50695,33.28673],[131.50546,33.28579],[131.5066,33.28287],[131.50752,33.28292],[131.50838,33.27923],[131.50853,33.27922],[131.50804,33.27913],[131.50854,33.27771],[131.50806,33.27882],[131.50749,33.27874],[131.50757,33.27789],[131.5094,33.27705],[131.50962,33.27499],[131.50931,33.27701],[131.50827,33.27732],[131.50845,33.27562],[131.50905,33.27534],[131.50841,33.27529],[131.51059,33.27165],[131.50979,33.27179],[131.51034,33.27158],[131.51014,33.27118],[131.51143,33.2714],[131.51222,33.27041],[131.51132,33.27136],[131.51034,33.27102],[131.51045,33.27054],[131.51156,33.27048],[131.51119,33.2703],[131.51262,33.26749],[131.51781,33.26535],[131.51774,33.26271],[131.51582,33.25914],[131.51651,33.2578],[131.51632,33.25419],[131.51903,33.25095],[131.51929,33.2492],[131.52108,33.24851],[131.51544,33.24779],[131.51387,33.24864],[131.51188,33.25096],[131.50988,33.25182],[131.5044,33.24961],[131.50377,33.24958],[131.50288,33.25066],[131.50257,33.2504],[131.50233,33.24938],[131.50397,33.24676],[131.50405,33.24451],[131.50521,33.2424],[131.50466,33.24035],[131.50612,33.23802],[131.5057,33.23723],[131.50625,33.23252],[131.50546,33.23131],[131.50629,33.22828],[131.50598,33.22706],[131.50483,33.22627],[131.5051,33.22457],[131.50418,33.22401],[131.50225,33.22401],[131.50043,33.22545],[131.50051,33.22639],[131.49948,33.22788],[131.49791,33.22762],[131.49667,33.22895],[131.49607,33.22764],[131.49361,33.22845],[131.49208,33.22997],[131.49067,33.22964],[131.48792,33.23048],[131.48459,33.22782],[131.48379,33.22622],[131.47606,33.22862],[131.47707,33.2299],[131.47411,33.22999],[131.46707,33.23501],[131.46546,33.23497],[131.46378,33.23588],[131.46191,33.24176],[131.46112,33.2424],[131.45772,33.24287],[131.45569,33.24246],[131.45322,33.24011],[131.45022,33.23912],[131.45001,33.23796],[131.45105,33.23743],[131.45149,33.23516],[131.4446,33.23434],[131.44248,33.23294],[131.44132,33.23388],[131.44118,33.23513],[131.44015,33.2362],[131.44069,33.23763],[131.43982,33.23745],[131.43921,33.23906],[131.43444,33.23862],[131.43329,33.23709],[131.43104,33.23585],[131.42401,33.23538],[131.41565,33.23292],[131.41252,33.23014],[131.4112,33.22985],[131.40879,33.22811],[131.40579,33.22764],[131.40383,33.22671],[131.40066,33.22834],[131.39631,33.22805],[131.39582,33.22859],[131.39463,33.22855],[131.39178,33.23049],[131.38624,33.23174],[131.38512,33.23307],[131.38167,33.23296],[131.3809,33.23468],[131.37893,33.2355],[131.38026,33.24284],[131.37837,33.24336],[131.37822,33.24493],[131.37901,33.24646],[131.37849,33.24741],[131.38042,33.24994],[131.38235,33.25136],[131.38274,33.25364],[131.384,33.25511],[131.38832,33.2568],[131.39095,33.2587],[131.39056,33.26006],[131.3937,33.26412],[131.39384,33.26927],[131.38988,33.27323],[131.38956,33.27695],[131.3905,33.2803],[131.39303,33.28089],[131.39401,33.28222],[131.39627,33.28166],[131.3992,33.28221],[131.40564,33.28211],[131.42049,33.29074],[131.42028,33.29221],[131.41836,33.29584],[131.42025,33.29912],[131.42041,33.30113],[131.41964,33.30207],[131.41994,33.30271],[131.42148,33.30359],[131.42293,33.30884],[131.42645,33.31069],[131.42849,33.31262],[131.42812,33.31381],[131.4331,33.31714],[131.43387,33.3183],[131.43409,33.32374],[131.42751,33.32608],[131.4205,33.32546],[131.4172,33.32329],[131.41579,33.32311],[131.4143,33.32072],[131.41194,33.31915],[131.40944,33.31939],[131.40487,33.32175],[131.39942,33.32265],[131.39915,33.32797],[131.39811,33.32997],[131.39697,33.33036],[131.39748,33.33176],[131.39685,33.33366],[131.39811,33.33603],[131.39899,33.33619],[131.39956,33.33737],[131.40061,33.33769],[131.39946,33.33898],[131.39912,33.34051],[131.40048,33.34121],[131.40082,33.34264],[131.40272,33.34346],[131.40263,33.34527],[131.40183,33.34588],[131.40226,33.34675],[131.40198,33.34779],[131.40052,33.3489],[131.40068,33.34956],[131.40699,33.35117],[131.40656,33.35052],[131.40774,33.3503],[131.40844,33.34937],[131.40981,33.34961],[131.41247,33.34856],[131.41628,33.34933],[131.41665,33.34566],[131.41979,33.3434],[131.42291,33.34289],[131.42895,33.34548],[131.43087,33.34469],[131.4332,33.34554],[131.43489,33.34495],[131.43302,33.34316],[131.4413,33.34564],[131.4395,33.34703],[131.43912,33.3481],[131.44191,33.34929],[131.44928,33.34856],[131.45053,33.34792],[131.45279,33.34934],[131.45333,33.34893],[131.45518,33.34953],[131.45587,33.35053],[131.46582,33.35184],[131.46772,33.35253],[131.4697,33.35409],[131.47148,33.35433],[131.47164,33.35373],[131.47176,33.35369]]]]}}]}
